BEESAT-4                
1 41619U 16040W   21059.68725444  .00001843  00000-0  76626-4 0  9996
2 41619  97.2850 118.7763 0010667   5.4526 354.6826 15.24978898248435
CAS-2T & KS-1Q          
1 41847U 16066G   21060.15092047  .00000134  00000-0  30344-4 0  9996
2 41847  98.6173 118.7580 0365486 183.4442 176.4221 14.38151857226318
NAYIF-1 (EO-88)         
1 42017U 17008BX  21060.17257933  .00002107  00000-0  80794-4 0  9998
2 42017  97.3284 129.6884 0007495 125.3374 234.8567 15.27578886224726
ZHUHAI-1 02 (CAS-4B)    
1 42759U 17034B   21060.36099188  .00000540  00000-0  45944-4 0  9994
2 42759  43.0174  55.2837 0009594 216.5466 281.9731 15.10090041204801
ZHUHAI-1 01 (CAS-4A)    
1 42761U 17034D   21060.35853617  .00000539  00000-0  45753-4 0  9997
2 42761  43.0183  54.4300 0010325 216.4881 285.5523 15.10171334204808
MAX VALIER SAT          
1 42778U 17036P   21060.12390663  .00001245  00000-0  55371-4 0  9991
2 42778  97.2709 112.2196 0011732 190.3347 169.7651 15.23253043204792
RADFXSAT (FOX-1B)       
1 43017U 17073E   21060.18667806  .00000905  00000-0  75944-4 0  9991
2 43017  97.7151 328.4345 0254328 293.7168  63.7550 14.79352576177118
FOX-1D (AO-92)          
1 43137U 18004AC  21060.13739652  .00001386  00000-0  58667-4 0  9990
2 43137  97.4169 135.2538 0007737 224.8900 135.1712 15.24855867174140
DIWATA-2B               
1 43678U 18084H   21060.52617827  .00000365  00000-0  42031-4 0  9994
2 43678  97.9070 185.3618 0011251  52.8713 307.3503 14.91715676127345
ES'HAIL 2               
1 43700U 18090A   21060.17943735  .00000137  00000-0  00000+0 0  9990
2 43700   0.0082 195.7270 0002407 184.0848 229.7533  1.00270500  8524
FOX-1CLIFF (AO-95)      
1 43770U 18099N   21059.70649886  .00000035  00000-0  83821-5 0  9998
2 43770  97.6768 132.2448 0015810  64.2828 296.0023 14.95210773122203
ITASAT 1                
1 43786U 18099AE  21060.18285493 -.00000010  00000-0  42624-5 0  9999
2 43786  97.6783 133.3139 0016267  56.3927 303.8844 14.95519170122307
JY1SAT (JO-97)          
1 43803U 18099AX  21060.16373695  .00000300  00000-0  32025-4 0  9993
2 43803  97.6748 133.0615 0016379  56.7435 303.5353 14.95744667122309
UWE-4                   
1 43880U 18111E   21060.15310591  .00000890  00000-0  82756-4 0  9998
2 43880  97.6936 329.7031 0013819 105.2689 255.0061 14.96740050116882
PSAT2 (NO-104)          
1 44354U 19036R   21059.52866516  .00017403  00000-0  23911-3 0  9999
2 44354  28.5291 131.5988 0339161 177.6570 182.5687 15.09926151 92467
BRICSAT2 (NO-103)       
1 44355U 19036S   21060.19123088  .00034036  00000-0  41128-3 0  9996
2 44355  28.5287  97.6888 0292790 232.8242 124.5282 15.21908460 92868
JAISAT-1                
1 44419U 19038F   21060.35160284  .00001512  00000-0  87991-4 0  9998
2 44419  97.5753  25.5674 0020386 329.1854  30.8178 15.13427428 91442
DUCHIFAT-3              
1 44854U 19089C   21060.24859716  .00000830  00000-0  72988-4 0  9992
2 44854  36.9685  20.4677 0009061 337.2959  22.7378 14.99350180 66858
RS-44 & BREEZE-KM R/B   
1 44909U 19096E   21059.79712396  .00000020  00000-0  38242-4 0  9997
2 44909  82.5244 184.9953 0217040 347.4407  12.1335 12.79708545 54940
ORBITAL FACTORY 2 (OF-2)
1 45113U 19071C   21060.42373728  .00002516  00000-0  84265-4 0  9990
2 45113  51.6418 200.9838 0011782 262.5788  97.3856 15.34896295 60576
HUSKYSAT-1              
1 45119U 19071J   21060.43920891  .00002852  00000-0  93735-4 0  9991
2 45119  51.6418 200.3352 0011177 259.0503 100.9222 15.34994683 60579
BY70-2                  
1 45857U 20042B   21060.44613420  .00001459  00000-0  21546-3 0  9990
2 45857  97.9922 137.3109 0011373 193.0835 167.0074 14.76725735 35603
SALSAT                  
1 46495U 20068K   21059.90684195  .00001192  00000-0  92037-4 0  9991
2 46495  97.6842 358.1096 0017780  77.9231 282.3987 15.03355023 23023
BY70-3                  
1 46839U 20079N   21060.51377616  .00003857  00000-0  12372-3 0  9994
2 46839  97.2521 136.5204 0006195 221.6985 266.1196 15.32913005 17663
RADFXSAT-2 (AO-109)     
1 47311U 21002C   21060.18887552  .00001120  00000-0  61522-4 0  9998
2 47311  60.6858 336.3665 0018513 332.5556  27.4550 15.21290945  6401
